[
  {
    "ce_code": "43584",
    "ce_name": "Cleveland Clinic",
    "address": "33 Grosvenor Place",
    "town": "London",
    "post_code": "SW1X7HY",
    "district_code": "258",
    "combined_address": "Cleveland Clinic, 33 Grosvenor Place, London, SW1X7HY"
  },
  {
    "ce_code": "43411",
    "ce_name": "Athlone House Rehabilitation Unit",
    "address": "7a Woodfield Road",
    "town": "London",
    "post_code": "W9 2BA",
    "district_code": "258",
    "combined_address": "Athlone House Rehabilitation Unit, 7a Woodfield Road, London, W9 2BA"
  },
  {
    "ce_code": "43226",
    "ce_name": "Beechcroft House",
    "address": "111 Shirland Road",
    "town": "London",
    "post_code": "W9 2EL",
    "district_code": "258",
    "combined_address": "Beechcroft House, 111 Shirland Road, London, W9 2EL"
  },
  {
    "ce_code": "42600",
    "ce_name": "Look Ahead, Hopkinson House",
    "address": "88 Vauxhall Bridge Road",
    "town": "Westminster",
    "post_code": "SW1V2RW",
    "district_code": "258",
    "combined_address": "Look Ahead, Hopkinson House, 88 Vauxhall Bridge Road, Westminster, SW1V2RW"
  },
  {
    "ce_code": "41751",
    "ce_name": "1 Housing Group Hostel",
    "address": "13A Great Chapel Street",
    "town": "Westminster",
    "post_code": "W1F 8FL",
    "district_code": "258",
    "combined_address": "1 Housing Group Hostel, 13A Great Chapel Street, Westminster, W1F 8FL"
  },
  {
    "ce_code": "41017",
    "ce_name": "London Oncology Centre",
    "address": "22 Devonshire Place",
    "town": "Westminster",
    "post_code": "W1G 6JA",
    "district_code": "258",
    "combined_address": "London Oncology Centre, 22 Devonshire Place, Westminster, W1G 6JA"
  },
  {
    "ce_code": "39930",
    "ce_name": "The Wellington Hospital",
    "address": "",
    "town": "Westminster",
    "post_code": "NW8 9LE",
    "district_code": "258",
    "combined_address": "The Wellington Hospital, Westminster, NW8 9LE"
  },
  {
    "ce_code": "39848",
    "ce_name": "The Butterworth Centre",
    "address": "36 Circus Road",
    "town": "Westminster",
    "post_code": "NW8 9SE",
    "district_code": "258",
    "combined_address": "The Butterworth Centre, 36 Circus Road, Westminster, NW8 9SE"
  },
  {
    "ce_code": "39782",
    "ce_name": "Athlone House Nursing Home",
    "address": "7A Woodfield Road",
    "town": "Westminster",
    "post_code": "W9  2BA",
    "district_code": "258",
    "combined_address": "Athlone House Nursing Home, 7A Woodfield Road, Westminster, W9  2BA"
  },
  {
    "ce_code": "39648",
    "ce_name": "Norton House",
    "address": "10 Arneway Street",
    "town": "Westminster",
    "post_code": "SW1P2BG",
    "district_code": "258",
    "combined_address": "Norton House, 10 Arneway Street, Westminster, SW1P2BG"
  },
  {
    "ce_code": "39598",
    "ce_name": "St John's Hospice",
    "address": "",
    "town": "Westminster",
    "post_code": "NW8 9NH",
    "district_code": "258",
    "combined_address": "St John's Hospice, Westminster, NW8 9NH"
  },
  {
    "ce_code": "38489",
    "ce_name": "Forrester Court Nursing Home",
    "address": "5 Cirencester Street",
    "town": "Westminster",
    "post_code": "W2  5SR",
    "district_code": "258",
    "combined_address": "Forrester Court Nursing Home, 5 Cirencester Street, Westminster, W2  5SR"
  },
  {
    "ce_code": "38005",
    "ce_name": "University College Hospital",
    "address": "16-18 Westmoreland Street",
    "town": "Westminster",
    "post_code": "W1G 8PH",
    "district_code": "258",
    "combined_address": "University College Hospital, 16-18 Westmoreland Street, Westminster, W1G 8PH"
  },
  {
    "ce_code": "35306",
    "ce_name": "St Mungo's Hostel Siddons House",
    "address": "49/57 Harrow Road",
    "town": "Westminster",
    "post_code": "W2  1JW",
    "district_code": "258",
    "combined_address": "St Mungo's Hostel Siddons House, 49/57 Harrow Road, Westminster, W2  1JW"
  },
  {
    "ce_code": "35214",
    "ce_name": "Westmead",
    "address": "4 Tavistock Road",
    "town": "Westminster",
    "post_code": "W11 1BA",
    "district_code": "258",
    "combined_address": "Westmead, 4 Tavistock Road, Westminster, W11 1BA"
  },
  {
    "ce_code": "35157",
    "ce_name": "Garside House Nursing Home",
    "address": "131-151 Regency Street",
    "town": "Westminster",
    "post_code": "SW1P4AH",
    "district_code": "258",
    "combined_address": "Garside House Nursing Home, 131-151 Regency Street, Westminster, SW1P4AH"
  },
  {
    "ce_code": "32959",
    "ce_name": "",
    "address": "117 Sutherland Avenue",
    "town": "Westminster",
    "post_code": "W9  2QJ",
    "district_code": "258",
    "combined_address": "117 Sutherland Avenue, Westminster, W9  2QJ"
  },
  {
    "ce_code": "32156",
    "ce_name": "",
    "address": "217 Harrow Road",
    "town": "Westminster",
    "post_code": "W2  5EH",
    "district_code": "258",
    "combined_address": "217 Harrow Road, Westminster, W2  5EH"
  },
  {
    "ce_code": "30041",
    "ce_name": "",
    "address": "38 Rochester Row",
    "town": "Westminster",
    "post_code": "SW1P1BT",
    "district_code": "258",
    "combined_address": "38 Rochester Row, Westminster, SW1P1BT"
  },
  {
    "ce_code": "26341",
    "ce_name": "Victoria Hostel",
    "address": "Castle Lane",
    "town": "Westminster",
    "post_code": "SW1E6DW",
    "district_code": "258",
    "combined_address": "Victoria Hostel, Castle Lane, Westminster, SW1E6DW"
  },
  {
    "ce_code": "25931",
    "ce_name": "",
    "address": "75 Great Peter Street",
    "town": "Westminster",
    "post_code": "SW1P2BN",
    "district_code": "258",
    "combined_address": "75 Great Peter Street, Westminster, SW1P2BN"
  },
  {
    "ce_code": "23861",
    "ce_name": "",
    "address": "72 Queensborough Terrace",
    "town": "Westminster",
    "post_code": "W2  3SH",
    "district_code": "258",
    "combined_address": "72 Queensborough Terrace, Westminster, W2  3SH"
  },
  {
    "ce_code": "23041",
    "ce_name": "Lister Hospital",
    "address": "",
    "town": "Westminster",
    "post_code": "SW1W8RH",
    "district_code": "258",
    "combined_address": "Lister Hospital, Westminster, SW1W8RH"
  },
  {
    "ce_code": "20688",
    "ce_name": "Portland Hospital",
    "address": "209 Great Portland Street",
    "town": "Westminster",
    "post_code": "W1W 5AH",
    "district_code": "258",
    "combined_address": "Portland Hospital, 209 Great Portland Street, Westminster, W1W 5AH"
  },
  {
    "ce_code": "19844",
    "ce_name": "",
    "address": "23 Enford Street",
    "town": "Westminster",
    "post_code": "W1H 1DG",
    "district_code": "258",
    "combined_address": "23 Enford Street, Westminster, W1H 1DG"
  },
  {
    "ce_code": "19192",
    "ce_name": "",
    "address": "41 Abbey Road",
    "town": "Westminster",
    "post_code": "NW8 0AA",
    "district_code": "258",
    "combined_address": "41 Abbey Road, Westminster, NW8 0AA"
  },
  {
    "ce_code": "18237",
    "ce_name": "Charlwood House",
    "address": "Lillington Gardens",
    "town": "Westminster",
    "post_code": "SW1V2SY",
    "district_code": "258",
    "combined_address": "Charlwood House, Lillington Gardens, Westminster, SW1V2SY"
  },
  {
    "ce_code": "09998",
    "ce_name": "Nightingale (Bupa) Hospital",
    "address": "",
    "town": "Westminster",
    "post_code": "NW1 6SH",
    "district_code": "258",
    "combined_address": "Nightingale (Bupa) Hospital, Westminster, NW1 6SH"
  },
  {
    "ce_code": "09967",
    "ce_name": "St Vincents Convent",
    "address": "Carlisle Place",
    "town": "Westminster",
    "post_code": "SW1P1NL",
    "district_code": "258",
    "combined_address": "St Vincents Convent, Carlisle Place, Westminster, SW1P1NL"
  },
  {
    "ce_code": "09802",
    "ce_name": "Devonshire Hospital",
    "address": "29 Devonshire Street",
    "town": "Westminster",
    "post_code": "W1G 6PS",
    "district_code": "258",
    "combined_address": "Devonshire Hospital, 29 Devonshire Street, Westminster, W1G 6PS"
  },
  {
    "ce_code": "03648",
    "ce_name": "",
    "address": "11 Montagu Place",
    "town": "Westminster",
    "post_code": "W1H 2AL",
    "district_code": "258",
    "combined_address": "11 Montagu Place, Westminster, W1H 2AL"
  },
  {
    "ce_code": "03646",
    "ce_name": "",
    "address": "20 Bolsover Street",
    "town": "Westminster",
    "post_code": "W1W 5NA",
    "district_code": "258",
    "combined_address": "20 Bolsover Street, Westminster, W1W 5NA"
  },
  {
    "ce_code": "03645",
    "ce_name": "",
    "address": "10 Daventry Street",
    "town": "Westminster",
    "post_code": "NW1 5NX",
    "district_code": "258",
    "combined_address": "10 Daventry Street, Westminster, NW1 5NX"
  },
  {
    "ce_code": "03644",
    "ce_name": "Bruce House",
    "address": "1 Kemble Sreet",
    "town": "Westminster",
    "post_code": "WC2B4AW",
    "district_code": "258",
    "combined_address": "Bruce House, 1 Kemble Sreet, Westminster, WC2B4AW"
  },
  {
    "ce_code": "03643",
    "ce_name": "",
    "address": "1 St Anns Street",
    "town": "Westminster",
    "post_code": "SW1P2DE",
    "district_code": "258",
    "combined_address": "1 St Anns Street, Westminster, SW1P2DE"
  },
  {
    "ce_code": "03641",
    "ce_name": "Nutford House (London University Hostel)",
    "address": "",
    "town": "Westminster",
    "post_code": "W1H 5UL",
    "district_code": "258",
    "combined_address": "Nutford House (London University Hostel), Westminster, W1H 5UL"
  },
  {
    "ce_code": "03640",
    "ce_name": "International House",
    "address": "4 Inverness Terrace",
    "town": "Westminster",
    "post_code": "W2  3HU",
    "district_code": "258",
    "combined_address": "International House, 4 Inverness Terrace, Westminster, W2  3HU"
  },
  {
    "ce_code": "03639",
    "ce_name": "",
    "address": "33 Meadway Street",
    "town": "Westminster",
    "post_code": "SW1A2BD",
    "district_code": "258",
    "combined_address": "33 Meadway Street, Westminster, SW1A2BD"
  },
  {
    "ce_code": "03638",
    "ce_name": "Queen Mary",
    "address": "28 Greencoat Place",
    "town": "London",
    "post_code": "SW1P1DX",
    "district_code": "258",
    "combined_address": "Queen Mary, 28 Greencoat Place, London, SW1P1DX"
  },
  {
    "ce_code": "03637",
    "ce_name": "",
    "address": "84 Bell Street",
    "town": "Westminster",
    "post_code": "NW1 6SP",
    "district_code": "258",
    "combined_address": "84 Bell Street, Westminster, NW1 6SP"
  },
  {
    "ce_code": "03635",
    "ce_name": "",
    "address": "11 Harewood Avenue",
    "town": "Westminster",
    "post_code": "NW1 6LD",
    "district_code": "258",
    "combined_address": "11 Harewood Avenue, Westminster, NW1 6LD"
  },
  {
    "ce_code": "03634",
    "ce_name": "",
    "address": "8 Avenue Road",
    "town": "Westminster",
    "post_code": "W3  8NS",
    "district_code": "258",
    "combined_address": "8 Avenue Road, Westminster, W3  8NS"
  },
  {
    "ce_code": "03633",
    "ce_name": "",
    "address": "14 Blandford Street",
    "town": "Westminster",
    "post_code": "W1U 4AU",
    "district_code": "258",
    "combined_address": "14 Blandford Street, Westminster, W1U 4AU"
  },
  {
    "ce_code": "03632",
    "ce_name": "",
    "address": "11 Cavendish Square",
    "town": "Westminster",
    "post_code": "W1G 0AN",
    "district_code": "258",
    "combined_address": "11 Cavendish Square, Westminster, W1G 0AN"
  },
  {
    "ce_code": "03631",
    "ce_name": "",
    "address": "8 Hyde Park Place",
    "town": "Westminster",
    "post_code": "W2  2LJ",
    "district_code": "258",
    "combined_address": "8 Hyde Park Place, Westminster, W2  2LJ"
  },
  {
    "ce_code": "03629",
    "ce_name": "",
    "address": "45 Kilburn Park Road",
    "town": "Westminster",
    "post_code": "NW6 5XD",
    "district_code": "258",
    "combined_address": "45 Kilburn Park Road, Westminster, NW6 5XD"
  },
  {
    "ce_code": "03628",
    "ce_name": "",
    "address": "22 Craven Hill Gardens",
    "town": "Westminster",
    "post_code": "W2  3EQ",
    "district_code": "258",
    "combined_address": "22 Craven Hill Gardens, Westminster, W2  3EQ"
  },
  {
    "ce_code": "03627",
    "ce_name": "Delaware",
    "address": "Cirencester Street",
    "town": "Westminster",
    "post_code": "W2  5SR",
    "district_code": "258",
    "combined_address": "Delaware, Cirencester Street, Westminster, W2  5SR"
  },
  {
    "ce_code": "03626",
    "ce_name": "Penfold Court",
    "address": "60 Penfold Street",
    "town": "Westminster",
    "post_code": "NW8 8PJ",
    "district_code": "258",
    "combined_address": "Penfold Court, 60 Penfold Street, Westminster, NW8 8PJ"
  },
  {
    "ce_code": "03625",
    "ce_name": "St George's Nursing Home",
    "address": "",
    "town": "Westminster",
    "post_code": "SW1V3QR",
    "district_code": "258",
    "combined_address": "St George's Nursing Home, Westminster, SW1V3QR"
  },
  {
    "ce_code": "03624",
    "ce_name": "Princess Grace Hospital",
    "address": "42 Nottingham Place",
    "town": "Westminster",
    "post_code": "W1U 5NY",
    "district_code": "258",
    "combined_address": "Princess Grace Hospital, 42 Nottingham Place, Westminster, W1U 5NY"
  },
  {
    "ce_code": "03623",
    "ce_name": "",
    "address": "56 Weymouth Street",
    "town": "Westminster",
    "post_code": "W1G 6NU",
    "district_code": "258",
    "combined_address": "56 Weymouth Street, Westminster, W1G 6NU"
  },
  {
    "ce_code": "03622",
    "ce_name": "Harley Street Clinic",
    "address": "35 Weymouth Street",
    "town": "Westminster",
    "post_code": "W1G 8BJ",
    "district_code": "258",
    "combined_address": "Harley Street Clinic, 35 Weymouth Street, Westminster, W1G 8BJ"
  },
  {
    "ce_code": "03621",
    "ce_name": "London Private Nursing Home",
    "address": "31 Langham Street",
    "town": "Westminster",
    "post_code": "W1W 6BT",
    "district_code": "258",
    "combined_address": "London Private Nursing Home, 31 Langham Street, Westminster, W1W 6BT"
  },
  {
    "ce_code": "03619",
    "ce_name": "London Clinic",
    "address": "20 Devonshire Place",
    "town": "Westminster",
    "post_code": "W1G 6BW",
    "district_code": "258",
    "combined_address": "London Clinic, 20 Devonshire Place, Westminster, W1G 6BW"
  },
  {
    "ce_code": "03618",
    "ce_name": "Regents Park Nursing Home",
    "address": "20 St Edmunds Terrace",
    "town": "Westminster",
    "post_code": "NW8 7QE",
    "district_code": "258",
    "combined_address": "Regents Park Nursing Home, 20 St Edmunds Terrace, Westminster, NW8 7QE"
  },
  {
    "ce_code": "03617",
    "ce_name": "Fitzroy Nuffield Nursing Home",
    "address": "10 Bryanston Square",
    "town": "Westminster",
    "post_code": "W1H 1EA",
    "district_code": "258",
    "combined_address": "Fitzroy Nuffield Nursing Home, 10 Bryanston Square, Westminster, W1H 1EA"
  },
  {
    "ce_code": "03616",
    "ce_name": "Sutherland Private Clinic",
    "address": "124 Sutherland Avenue",
    "town": "Westminster",
    "post_code": "W9  2QP",
    "district_code": "258",
    "combined_address": "Sutherland Private Clinic, 124 Sutherland Avenue, Westminster, W9  2QP"
  },
  {
    "ce_code": "03615",
    "ce_name": "",
    "address": "166 Westbourne Grove",
    "town": "Westminster",
    "post_code": "W11 2RW",
    "district_code": "258",
    "combined_address": "166 Westbourne Grove, Westminster, W11 2RW"
  },
  {
    "ce_code": "03611",
    "ce_name": "Hospital of St John and St Elizabeth",
    "address": "60 Grove End Road",
    "town": "Westminster",
    "post_code": "NW8 9NH",
    "district_code": "258",
    "combined_address": "Hospital of St John and St Elizabeth, 60 Grove End Road, Westminster, NW8 9NH"
  },
  {
    "ce_code": "03609",
    "ce_name": "King Edward V11 Hospital For Officers, Beaumont House",
    "address": "5-10 Beaumont Street",
    "town": "London",
    "post_code": "W1G 6AA",
    "district_code": "258",
    "combined_address": "King Edward V11 Hospital For Officers, Beaumont House, 5-10 Beaumont Street, London, W1G 6AA"
  },
  {
    "ce_code": "03607",
    "ce_name": "Samaritan Hospital",
    "address": "",
    "town": "Westminster",
    "post_code": "NW1 5QH",
    "district_code": "258",
    "combined_address": "Samaritan Hospital, Westminster, NW1 5QH"
  },
  {
    "ce_code": "03606",
    "ce_name": "Western Ophthalmic Hospital",
    "address": "Marylebone Road",
    "town": "Westminster",
    "post_code": "NW1 5QH",
    "district_code": "258",
    "combined_address": "Western Ophthalmic Hospital, Marylebone Road, Westminster, NW1 5QH"
  },
  {
    "ce_code": "03603",
    "ce_name": "Royal National Orthopaedic Hospital",
    "address": "",
    "town": "Westminster",
    "post_code": "W1W 5AH",
    "district_code": "258",
    "combined_address": "Royal National Orthopaedic Hospital, Westminster, W1W 5AH"
  },
  {
    "ce_code": "03598",
    "ce_name": "St Mary's Hospital",
    "address": "Praed Street",
    "town": "Westminster",
    "post_code": "W2  1NY",
    "district_code": "258",
    "combined_address": "St Mary's Hospital, Praed Street, Westminster, W2  1NY"
  },
  {
    "ce_code": "03594",
    "ce_name": "Gordon Hospital",
    "address": "",
    "town": "Westminster",
    "post_code": "SW1V2RH",
    "district_code": "258",
    "combined_address": "Gordon Hospital, Westminster, SW1V2RH"
  },
  {
    "ce_code": "03586",
    "ce_name": "Hospital For Women",
    "address": "Soho Square",
    "town": "Westminster",
    "post_code": "W1D 4JB",
    "district_code": "258",
    "combined_address": "Hospital For Women, Soho Square, Westminster, W1D 4JB"
  }
]