[
  {
    "address": "1 Acacia Avenue",
    "town": "London",
    "post_code": "AA1 1AA",
    "combined_address": "1 Acacia Avenue, London, AA1 1AA"
  },
  {
    "address": "2 Acacia Avenue",
    "town": "London",
    "post_code": "AA1 1AA",
    "combined_address": "2 Acacia Avenue, London, AA1 1AA"
  },
  {
    "address": "3 Acacia Avenue",
    "town": "London",
    "post_code": "AA1 1AA",
    "combined_address": "3 Acacia Avenue, London, AA1 1AA"
  },
  {
    "address": "4 Acacia Avenue",
    "town": "London",
    "post_code": "AA1 1AA",
    "combined_address": "4 Acacia Avenue, London, AA1 1AA"
  },
  {
    "address": "5 Acacia Avenue",
    "town": "London",
    "post_code": "AA1 1AA",
    "combined_address": "5 Acacia Avenue, London, AA1 1AA"
  },
  {
    "address": "6 Acacia Avenue",
    "town": "London",
    "post_code": "AA1 1AA",
    "combined_address": "6 Acacia Avenue, London, AA1 1AA"
  },
  {
    "address": "7 Acacia Avenue",
    "town": "London",
    "post_code": "AA1 1AA",
    "combined_address": "7 Acacia Avenue, London, AA1 1AA"
  },
  {
    "address": "8 Acacia Avenue",
    "town": "London",
    "post_code": "AA1 1AA",
    "combined_address": "8 Acacia Avenue, London, AA1 1AA"
  },
  {
    "address": "9 Acacia Avenue",
    "town": "London",
    "post_code": "AA1 1AA",
    "combined_address": "9 Acacia Avenue, London, AA1 1AA"
  },
  {
    "address": "10 Acacia Avenue",
    "town": "London",
    "post_code": "AA1 1AA",
    "combined_address": "10 Acacia Avenue, London, AA1 1AA"
  }
]